ONEWEB-0379             
1 49305U 21090AC  24306.84149711 -.00000107  00000+0 -32234-3 0  9999
2 49305  87.9029  47.4923 0001757 101.8243 258.3084 13.14503559149747
ONEWEB-0380             
1 49306U 21090AD  24306.82854146  .00000098  00000+0  21319-3 0  9992
2 49306  87.9175  62.7688 0001564  99.8907 260.2402 13.19724850148296
ONEWEB-0381             
1 49307U 21090AE  24306.74021897 -.00000023  00000+0 -88512-4 0  9992
2 49307  87.9306  32.2924 0001654 100.1554 259.9766 13.20771101151624
ONEWEB-0382             
1 49308U 21090AF  24306.80335219  .00000797  00000+0  19281-2 0  9997
2 49308  87.9289  32.2762 0001744 115.7126 244.4188 13.20770019151626
ONEWEB-0383             
1 49309U 21090AG  24306.83513954 -.00000007  00000+0 -52289-4 0  9998
2 49309  87.9026  47.4788 0001855 107.1743 252.9590 13.14500675149771
ONEWEB-0384             
1 49310U 21090AH  24306.80017960 -.00000314  00000+0 -80401-3 0  9990
2 49310  87.9289  32.2915 0001902 116.9568 243.1759 13.20771052151637
ONEWEB-0385             
1 49311U 21090AJ  24306.79545525  .00000049  00000+0  89520-4 0  9997
2 49311  87.9295  32.2931 0001756 112.7624 247.3695 13.20774279151603
ONEWEB-0386             
1 49312U 21090AK  24306.73708239  .00000677  00000+0  16325-2 0  9993
2 49312  87.9287  32.2907 0001868 114.7549 245.3779 13.20770991151619
